CCSDS_OMM_VERS,COMMENT,CREATION_DATE,ORIGINATOR,OBJECT_NAME,OBJECT_ID,CENTER_NAME,REF_FRAME,TIME_SYSTEM,MEAN_ELEMENT_THEORY,EPOCH,MEAN_MOTION,ECCENTRICITY,INCLINATION,RA_OF_ASC_NODE,ARG_OF_PERICENTER,MEAN_ANOMALY,EPHEMERIS_TYPE,CLASSIFICATION_TYPE,NORAD_CAT_ID,ELEMENT_SET_NO,REV_AT_EPOCH,BSTAR,MEAN_MOTION_DOT,MEAN_MOTION_DDOT,SEMIMAJOR_AXIS,PERIOD,APOAPSIS,PERIAPSIS,OBJECT_TYPE,RCS_SIZE,COUNTRY_CODE,LAUNCH_DATE,SITE,DECAY_DATE,FILE,GP_ID,TLE_LINE0,TLE_LINE1,TLE_LINE2
"2.0","GENERATED VIA SPACE-TRACK.ORG API","2020-06-18T06:26:10","18 SPCS","IRIDIUM 136","2017-061H","EARTH","TEME","UTC","SGP4","2020-06-18T01:55:30.690048","14.34216303","0.00025780","86.3997","220.4274","85.6339","274.5151","0","U","42962","999","14092","0.00001726500000","0.00000068","0.0000000000000","7155.808","100.403","779.518","775.829","PAYLOAD","LARGE","US","2017-10-09","AFWTR","","2767836","155881299","0 IRIDIUM 136","1 42962U 17061H   20170.08021632  .00000068  00000-0  17265-4 0  9999","2 42962  86.3997 220.4274 0002578  85.6339 274.5151 14.34216303140922"
"2.0","GENERATED VIA SPACE-TRACK.ORG API","2020-06-18T01:50:20","18 SPCS","COSMOS 1818","1987-011A","EARTH","TEME","UTC","SGP4","2020-06-17T18:22:46.521408","14.31456512","0.00127470","65.0113","262.5791","275.3626","84.6004","0","U","17369","999","79530","0.00000814640000","-0.00000079","0.0000000000000","7165.003","100.596","796.001","777.735","PAYLOAD","LARGE","CIS","1987-02-01","TTMTR","","2767710","155861463","0 COSMOS 1818","1 17369U 87011A   20169.76581622 -.00000079 +00000-0 +81464-5 0  9993","2 17369 065.0113 262.5791 0012747 275.3626 084.6004 14.31456512795306"
"2.0","GENERATED VIA SPACE-TRACK.ORG API","2020-06-18T01:50:20","18 SPCS","IRIDIUM 136","2017-061H","EARTH","TEME","UTC","SGP4","2020-06-17T15:52:42.655584","14.34216224","0.00025800","86.3998","220.6022","85.8089","274.3402","0","U","42962","999","14086","0.00001301900000","0.00000056","0.0000000000000","7155.809","100.403","779.520","775.828","PAYLOAD","LARGE","US","2017-10-09","AFWTR","","2767710","155875664","0 IRIDIUM 136","1 42962U 17061H   20169.66160481 +.00000056 +00000-0 +13019-4 0  9997","2 42962 086.3998 220.6022 0002580 085.8089 274.3402 14.34216224140865"
"2.0","GENERATED VIA SPACE-TRACK.ORG API","2020-06-17T16:38:25","18 SPCS","COSMOS 1818","1987-011A","EARTH","TEME","UTC","SGP4","2020-06-17T13:20:57.814944","14.31456495","0.00127470","65.0113","263.1660","275.3116","84.6514","0","U","17369","999","79527","0.00000599100000","-0.00000084","0.0000000000000","7165.003","100.596","796.001","777.735","PAYLOAD","LARGE","CIS","1987-02-01","TTMTR","","2767399","155839032","0 COSMOS 1818","1 17369U 87011A   20169.55622471 -.00000084 +00000-0 +59910-5 0  9995","2 17369 065.0113 263.1660 0012747 275.3116 084.6514 14.31456495795274"
"2.0","GENERATED VIA SPACE-TRACK.ORG API","2020-06-17T16:38:25","18 SPCS","IRIDIUM 136","2017-061H","EARTH","TEME","UTC","SGP4","2020-06-17T09:10:50.626560","14.34216290","0.00025900","86.3998","220.7187","85.9501","274.1991","0","U","42962","999","14082","0.00002112800000","0.00000079","0.0000000000000","7155.809","100.403","779.527","775.820","PAYLOAD","LARGE","US","2017-10-09","AFWTR","","2767399","155848777","0 IRIDIUM 136","1 42962U 17061H   20169.38253040 +.00000079 +00000-0 +21128-4 0  9995","2 42962 086.3998 220.7187 0002590 085.9501 274.1991 14.34216290140829"
"2.0","GENERATED VIA SPACE-TRACK.ORG API","2020-06-17T06:36:09","18 SPCS","COSMOS 1818","1987-011A","EARTH","TEME","UTC","SGP4","2020-06-16T23:56:07.931328","14.31456506","0.00127410","65.0114","264.7309","275.2708","84.6923","0","U","17369","999","79547","0.00000400760000","-0.00000090","0.0000000000000","7165.003","100.596","795.997","777.739","PAYLOAD","LARGE","CIS","1987-02-01","TTMTR","","2767022","155824594","0 COSMOS 1818","1 17369U 87011A   20168.99731402 -.00000090  00000-0  40076-5 0  9997","2 17369  65.0114 264.7309 0012741 275.2708  84.6923 14.31456506795471"
"2.0","GENERATED VIA SPACE-TRACK.ORG API","2020-06-17T01:18:51","18 SPCS","IRIDIUM 136","2017-061H","EARTH","TEME","UTC","SGP4","2020-06-16T21:27:34.586784","14.34216214","0.00025960","86.3998","220.9226","86.2691","273.8802","0","U","42962","999","14075","0.00001906000000","0.00000073","0.0000000000000","7155.809","100.403","779.531","775.816","PAYLOAD","LARGE","US","2017-10-09","AFWTR","","2766909","155817567","0 IRIDIUM 136","1 42962U 17061H   20168.89415031 +.00000073 +00000-0 +19060-4 0  9996","2 42962 086.3998 220.9226 0002596 086.2691 273.8802 14.34216214140750"
"2.0","GENERATED VIA SPACE-TRACK.ORG API","2020-06-17T01:18:51","18 SPCS","COSMOS 1818","1987-011A","EARTH","TEME","UTC","SGP4","2020-06-16T18:54:19.225728","14.31456499","0.00127380","65.0113","265.3178","275.2334","84.7297","0","U","17369","999","79516","0.00000326260000","-0.00000092","0.0000000000000","7165.003","100.596","795.995","777.741","PAYLOAD","LARGE","CIS","1987-02-01","TTMTR","","2766909","155806880","0 COSMOS 1818","1 17369U 87011A   20168.78772252 -.00000092 +00000-0 +32626-5 0  9996","2 17369 065.0113 265.3178 0012738 275.2334 084.7297 14.31456499795164"
"2.0","GENERATED VIA SPACE-TRACK.ORG API","2020-06-16T22:46:10","18 SPCS","IRIDIUM 136","2017-061H","EARTH","TEME","UTC","SGP4","2020-06-16T16:26:10.566528","14.34216222","0.00025960","86.3998","221.0100","86.3377","273.8115","0","U","42962","999","14072","0.00002053400000","0.00000077","0.0000000000000","7155.809","100.403","779.531","775.816","PAYLOAD","LARGE","US","2017-10-09","AFWTR","","2766805","155799087","0 IRIDIUM 136","1 42962U 17061H   20168.68484452  .00000077  00000-0  20534-4 0  9998","2 42962  86.3998 221.0100 0002596  86.3377 273.8115 14.34216222140728"
"2.0","GENERATED VIA SPACE-TRACK.ORG API","2020-06-16T19:05:01","18 SPCS","IRIDIUM 136","2017-061H","EARTH","TEME","UTC","SGP4","2020-06-16T04:42:54.521568","14.34216096","0.00025980","86.3999","221.2139","86.7411","273.4082","0","U","42962","999","14065","0.00000825460000","0.00000043","0.0000000000000","7155.809","100.403","779.533","775.815","PAYLOAD","LARGE","US","2017-10-09","AFWTR","","2766753","155795830","0 IRIDIUM 136","1 42962U 17061H   20168.19646437 +.00000043 +00000-0 +82546-5 0  9992","2 42962 086.3999 221.2139 0002598 086.7411 273.4082 14.34216096140658"
"2.0","GENERATED VIA SPACE-TRACK.ORG API","2020-06-16T19:05:01","18 SPCS","COSMOS 1818","1987-011A","EARTH","TEME","UTC","SGP4","2020-06-16T00:27:40.644288","14.31456475","0.00127260","65.0114","267.4697","275.1387","84.8245","0","U","17369","999","79505","0.00000157510000","-0.00000096","0.0000000000000","7165.003","100.596","795.986","777.750","PAYLOAD","LARGE","CIS","1987-02-01","TTMTR","","2766753","155782417","0 COSMOS 1818","1 17369U 87011A   20168.01922042 -.00000096 +00000-0 +15751-5 0  9990","2 17369 065.0114 267.4697 0012726 275.1387 084.8245 14.31456475795054"
"2.0","GENERATED VIA SPACE-TRACK.ORG API","2020-06-15T22:26:10","18 SPCS","COSMOS 1818","1987-011A","EARTH","TEME","UTC","SGP4","2020-06-15T17:45:15.708096","14.31456448","0.00127190","65.0114","268.2522","275.0815","84.8818","0","U","17369","999","79529","0.00000092977000","-0.00000098","0.0000000000000","7165.003","100.596","795.981","777.755","PAYLOAD","LARGE","CIS","1987-02-01","TTMTR","","2766145","155744076","0 COSMOS 1818","1 17369U 87011A   20167.73976514 -.00000098  00000-0  92977-6 0  9999","2 17369  65.0114 268.2522 0012719 275.0815  84.8818 14.31456448795299"
"2.0","GENERATED VIA SPACE-TRACK.ORG API","2020-06-16T01:54:10","18 SPCS","IRIDIUM 136","2017-061H","EARTH","TEME","UTC","SGP4","2020-06-15T16:59:38.462784","14.34216001","0.00025290","86.4003","221.4175","83.9024","276.2460","0","U","42962","999","14058","-0.00000866430000","-0.00000004","0.0000000000000","7155.809","100.403","779.484","775.865","PAYLOAD","LARGE","US","2017-10-09","AFWTR","","2766273","155764788","0 IRIDIUM 136","1 42962U 17061H   20167.70808406 -.00000004 +00000-0 -86643-5 0  9995","2 42962 086.4003 221.4175 0002529 083.9024 276.2460 14.34216001140589"
"2.0","GENERATED VIA SPACE-TRACK.ORG API","2020-06-15T20:15:50","18 SPCS","IRIDIUM 136","2017-061H","EARTH","TEME","UTC","SGP4","2020-06-15T13:38:42.452160","14.34215793","0.00025260","86.4003","221.4757","83.7406","276.4078","0","U","42962","999","14056","-0.00005668700000","-0.00000139","0.0000000000000","7155.810","100.403","779.483","775.868","PAYLOAD","LARGE","US","2017-10-09","AFWTR","","2766062","155720175","0 IRIDIUM 136","1 42962U 17061H   20167.56854690 -.00000139 +00000-0 -56687-4 0  9998","2 42962 086.4003 221.4757 0002526 083.7406 276.4078 14.34215793140566"
"2.0","GENERATED VIA SPACE-TRACK.ORG API","2020-06-15T20:15:50","18 SPCS","COSMOS 1818","1987-011A","EARTH","TEME","UTC","SGP4","2020-06-15T12:43:27.002496","14.31456434","0.00127220","65.0115","268.8391","275.0422","84.9210","0","U","17369","999","79498","0.00000000231680","-0.00000100","0.0000000000000","7165.003","100.596","795.984","777.753","PAYLOAD","LARGE","CIS","1987-02-01","TTMTR","","2766062","155708603","0 COSMOS 1818","1 17369U 87011A   20167.53017364 -.00000100 +00000-0 +23168-8 0  9998","2 17369 065.0115 268.8391 0012722 275.0422 084.9210 14.31456434794985"
"2.0","GENERATED VIA SPACE-TRACK.ORG API","2020-06-15T14:46:10","18 SPCS","IRIDIUM 136","2017-061H","EARTH","TEME","UTC","SGP4","2020-06-15T10:17:46.438080","14.34215872","0.00025260","86.4004","221.5340","83.8304","276.3179","0","U","42962","999","14054","-0.00004770300000","-0.00000114","0.0000000000000","7155.810","100.403","779.482","775.867","PAYLOAD","LARGE","US","2017-10-09","AFWTR","","2765902","155698461","0 IRIDIUM 136","1 42962U 17061H   20167.42900970 -.00000114  00000-0 -47703-4 0  9998","2 42962  86.4004 221.5340 0002526  83.8304 276.3179 14.34215872140541"
